[{"OBJECT_NAME":"STARLINK-2270","OBJECT_ID":"2021-024Z","EPOCH":"2026-03-10T00:00:02.999808","MEAN_MOTION":15.15503403,"ECCENTRICITY":0.00016675,"INCLINATION":53.0914,"RA_OF_ASC_NODE":240.2006,"ARG_OF_PERICENTER":79.2002,"MEAN_ANOMALY":45.1048,"EPHEMERIS_TYPE":0,"CLASSIFICATION_TYPE":"U","NORAD_CAT_ID":48000,"ELEMENT_SET_NO":999,"REV_AT_EPOCH":568,"BSTAR":0.0047847248,"MEAN_MOTION_DOT":0.00092576,"MEAN_MOTION_DDOT":0},{"OBJECT_NAME":"OBJECT B","OBJECT_ID":"2024-094B","EPOCH":"2026-03-09T23:16:02.635680","MEAN_MOTION":15.16281585,"ECCENTRICITY":0.00049641,"INCLINATION":97.3969,"RA_OF_ASC_NODE":142.4807,"ARG_OF_PERICENTER":78.7476,"MEAN_ANOMALY":281.4315,"EPHEMERIS_TYPE":0,"CLASSIFICATION_TYPE":"U","NORAD_CAT_ID":59806,"ELEMENT_SET_NO":999,"REV_AT_EPOCH":10012,"BSTAR":0.00045081306,"MEAN_MOTION_DOT":8.669e-5,"MEAN_MOTION_DDOT":0}]
